{"type":"FeatureCollection","features":[{"type":"Feature","properties":{"name":"Kerala"},"geometry":{"type":"Polygon","coordinates":[[[74.99575065337001,12.79226798218167],[75.00507209669996,12.789785616812821],[75.00845422478272,12.764735311485481],[74.99155573870644,12.742459449743876],[74.9858281292648,12.74276642253244],[74.98454889401631,12.73417042632417],[74.99286286732752,12.73743950153181],[75.01209106604989,12.727163531272026],[75.00296619113686,12.718012266652806],[75.0070034762295,12.713535803934235],[75.03816970476811,12.722950429618663],[75.04976961107877,12.719075821092304],[75.05697835356824,12.691109580942452],[75.04481192652923,12.691823644445662],[75.04798575993493,12.664478963533384],[75.07056768255256,12.66243962848614],[75.0834370745614,12.670848753667087],[75.08640918913284,12.702204974779818],[75.10483763784674,12.696007250134528],[75.11313504024997,12.680383518884355],[75.13246384163307,12.675333611556994],[75.15128421849192,12.680861152420277],[75.15136891754156,12.673385149405192],[75.16202035835289,12.668603596179082],[75.14364991321298,12.637832061200697],[75.15996421497658,12.62160449994775],[75.17085046247894,12.621127581372832],[75.18346256654428,12.632015784900602],[75.2024051558733,12.629718466733891],[75.19970356546725,12.610772810716696],[75.21060297184971,12.601900066135215],[75.20447435560709,12.585194422584607],[75.21194757791847,12.588608960435238],[75.22409132225675,12.567302030064695],[75.23754929536375,12.566505550890497],[75.23991342326593,12.577175079766164],[75.25077539716688,12.579568864611474],[75.27807758151522,12.61637236839016],[75.29257890759055,12.601359029495654],[75.30297131847163,12.603819535942876],[75.30978867510731,12.592638738886762],[75.32948855745104,12.589981174791433],[75.33008996378084,12.581922767221954],[75.31779726383274,12.573448525728907],[75.29287849514651,12.57962705254647],[75.27233980883517,12.558258320764935],[75.28265535466096,12.522893064963],[75.30629129170978,12.522081192992687],[75.30661255742365,12.501547434966199],[75.33667046057337,12.495083616215993],[75.34242535634519,12.46948460752867],[75.3386475076764,12.462630113389082],[75.35760627760766,12.462904005515497],[75.37408311114672,12.473684605160429],[75.37199734230359,12.488367861387758],[75.38511514594728,12.497571837070666],[75.3994161669226,12.502739853261687],[75.40638398823052,12.494543969928316],[75.41666663775521,12.501659669458206],[75.42478014318914,12.465043604179016],[75.3940836737226,12.450030163661154],[75.3686499658233,12.456556898981773],[75.37261898517806,12.433852981529924],[75.36770379899122,12.4119557676446],[75.38077435405324,12.391603901099188],[75.42382037680898,12.371738175676342],[75.42018069008685,12.353441403897705],[75.41247413507335,12.346346156749803],[75.43297179341357,12.30456726796507],[75.42168404897973,12.291431674831983],[75.43331858998101,12.297048244081225],[75.46110167060567,12.29364435150569],[75.46996734651589,12.30048770844104],[75.48557800522082,12.291312810537818],[75.49543656234755,12.27197239980643],[75.51413838427908,12.258504515271227],[75.52847538443149,12.224846722198492],[75.54115502848185,12.216286379612768],[75.53698119752431,12.201324872245095],[75.55206402703328,12.193650191902861],[75.5557589663033,12.181412711227665],[75.57383373054228,12.170761671513958],[75.58035048518678,12.156066166520418],[75.59502169229734,12.14839597919115],[75.62078797578454,12.154320483503568],[75.63885674244477,12.14781139737812],[75.65197165476809,12.11102853304044],[75.66219542118182,12.099767073091982],[75.67677953344878,12.096163812509985],[75.68825592327232,12.107751688589588],[75.70574744568813,12.105865616005417],[75.70482904092756,12.089068422369849],[75.72139721590884,12.084002829966664],[75.72133944885655,12.067661810244374],[75.75630016172312,12.083045737270993],[75.79993185627023,12.079936329498082],[75.80633420006336,12.073697724370504],[75.7978941400026,12.053225944022131],[75.80465941869727,12.036016971506058],[75.83147942793329,12.011571996250666],[75.8318705358966,11.983763232786998],[75.84944606218608,11.97609160294519],[75.8561413727262,11.962882610743918],[75.8819438584224,11.946600528091949],[76.0039050948443,11.929745216668437],[76.0097007541865,11.938054075535206],[76.0354106654699,11.938947194957109],[76.07875955920633,11.967520939739643],[76.09729648414549,11.967863004074445],[76.11396785093564,11.976941086362103],[76.11437792829884,11.85751510893516],[76.12288112616312,11.84939593327573],[76.15587184081284,11.86742432397341],[76.19061982984135,11.87024025058713],[76.20755058539123,11.860643424054842],[76.21226375776627,11.826118147634475],[76.22536740967826,11.80660682974144],[76.25134818057415,11.801921782764111],[76.27905384665775,11.81020198923045],[76.29075432235413,11.791551796478302],[76.30716290634314,11.782879954146608],[76.31781054122354,11.750623189708506],[76.34241060186781,11.737437238138057],[76.35371676441719,11.737335931308223],[76.36353733148275,11.746764533356554],[76.3798972135856,11.74308660656169],[76.41533761853634,11.760278028808045],[76.41327640568164,11.740306198672158],[76.41968538467285,11.741251658637168],[76.42666658069822,11.724062483796615],[76.41641929701302,11.711119682827132],[76.40410919068665,11.708021280957382],[76.41068270154551,11.706436704290525],[76.41522189197678,11.676504182821816],[76.43137534459652,11.666327781002337],[76.44221918007116,11.64055970966291],[76.43279249537744,11.63031352045266],[76.38788800382838,11.6293591095353],[76.37856307832345,11.60039651318857],[76.34332568543209,11.58520450328524],[76.33626701730907,11.595398547105333],[76.30554294315237,11.57111281660326],[76.29820738995915,11.587326607437035],[76.28546144878686,11.590252736074945],[76.27844969289907,11.599634046374206],[76.2331006511742,11.571091809339578],[76.24997002889376,11.535478930608235],[76.24067761118289,11.52535531089893],[76.25234871951784,11.501019289408703],[76.24774023812154,11.466344477315829],[76.26560706831162,11.479947941844102],[76.27379413019503,11.475443855549543],[76.28581061776583,11.48130616994382],[76.29686085034803,11.463120722543351],[76.30583358695054,11.465671371636518],[76.32889477807163,11.451568158343889],[76.34169698262968,11.465589718590707],[76.3988538458284,11.43497393449951],[76.41873288751282,11.440639225419943],[76.41655192902834,11.421867483897302],[76.45698147681378,11.388558812139536],[76.518939721491,11.368410365945692],[76.51835169257663,11.353888573998518],[76.5471790866456,11.358921487736495],[76.54884550701462,11.328300590100184],[76.53759225967508,11.310778112120204],[76.53953848791093,11.303075459265074],[76.5492930986976,11.299700214593258],[76.53103609673855,11.28852274323009],[76.5226281451728,11.269262918948584],[76.45529622733909,11.237628051893125],[76.44699463769246,11.201707058234206],[76.46176900603484,11.187402133301873],[76.47563847383657,11.19330668525538],[76.47493493599853,11.205953955510665],[76.49677059578642,11.210047944656992],[76.51520211478584,11.209281617053023],[76.53051550978302,11.197602241250479],[76.602853734912,11.204969536015312],[76.63269291574551,11.193224122994934],[76.67795558118519,11.218328977600265],[76.68914572489535,11.234698316074457],[76.70679218071461,11.239036718469833],[76.73553355193195,11.216664381056376],[76.72791481661557,11.20607142135907],[76.73116626241313,11.192275546879046],[76.69896105610792,11.172792293229804],[76.70117667086674,11.152217295891546],[76.7067042261192,11.140419170908046],[76.71367910620586,11.139749729066807],[76.71303364838423,11.149513984183045],[76.71989330283373,11.148047218704221],[76.73235601062146,11.130294235490624],[76.74893223903166,11.12911373141361],[76.74439796249601,11.101179248123856],[76.75838592946712,11.082951392292955],[76.74482777458218,11.071711989117034],[76.74747917562354,11.055328985444362],[76.76154858879642,11.05462119920901],[76.77769529380282,11.040118998992682],[76.80052015837867,11.057633215800308],[76.80304510035114,11.050325465148148],[76.7923949761473,11.03688535347635],[76.76747613731396,11.032472062735565],[76.71683641816622,11.039110998373928],[76.69007458067739,11.007146224918415],[76.68809485179605,10.987406491816216],[76.67076304987489,10.968133533835555],[76.65950686265165,10.931808368661336],[76.74343875549425,10.888823061834898],[76.78387836219673,10.889579397071543],[76.79619867852625,10.87943323855319],[76.82862895995856,10.86983874576157],[76.85644864748713,10.834607658017035],[76.8483847855295,10.823630609565043],[76.8517160020919,10.815757626013692],[76.8639176510788,10.816628942271905],[76.87136908551491,10.807949700318488],[76.8997646620096,10.808087143706757],[76.9090861476077,10.779034587276442],[76.89201770315452,10.73435199984499],[76.89541501539071,10.715564281866136],[76.88670427917918,10.714906891839632],[76.86715622487992,10.68341418151931],[76.88189742802393,10.672284676396771],[76.88445319605819,10.637614140580183],[76.86423293090508,10.632072492051918],[76.81658770146129,10.634377369919719],[76.82031611619584,10.602518801901226],[76.84151774584734,10.593144376811608],[76.83641869956341,10.545715903765995],[76.8433757550871,10.532665625718096],[76.83229499861534,10.49874409296558],[76.82954919214154,10.446548845253062],[76.81946519925958,10.422952344375233],[76.82722617404875,10.409841919668906],[76.83367850755712,10.411482194947382],[76.83490637353037,10.402126082752545],[76.82791111750413,10.39458180590566],[76.85173729533994,10.367820465741943],[76.83810152356654,10.342285277443636],[76.83216530558445,10.303299410439479],[76.84253213435056,10.299194470248665],[76.85116017969858,10.285702657451736],[76.8531600974606,10.291717022922342],[76.87691056227271,10.298199460336889],[76.87499987794206,10.275212479472373],[76.89743887220624,10.263293445136412],[76.90520639675788,10.24089536462941],[76.91843886126452,10.233011943546387],[76.94079065636373,10.237904909284168],[76.98400072355463,10.217076753689298],[77.01992654837159,10.244876707394155],[77.05187593982282,10.256745125187422],[77.05581594974632,10.270563892809434],[77.0470819201945,10.280747855229379],[77.05938512692211,10.282895476744898],[77.06514144542143,10.294099779381384],[77.12170558974123,10.315931675506476],[77.17642586666045,10.35517098495302],[77.23581848313654,10.349343008473113],[77.22821476380034,10.314823618115554],[77.26450249379513,10.26285644746713],[77.2587975418731,10.254290852840654],[77.2605661971723,10.229708103246423],[77.284061465864,10.233490402659982],[77.29461727186964,10.216432588193413],[77.28385059732727,10.205948283686382],[77.2786226089463,10.188884874537393],[77.27413015987901,10.128208699771733],[77.26763042490427,10.120517916168922],[77.23935282237488,10.127486172748718],[77.21751609509175,10.112598733544758],[77.20877414341203,10.115215248984612],[77.20199787500201,10.101447841644642],[77.20947114857472,10.082502727019289],[77.23254227900304,10.065873002437172],[77.26266288198644,10.029329965705415],[77.25547725117428,10.009200074324042],[77.26232253355812,10.003920102430811],[77.26454477092449,9.98185026188014],[77.27617923908065,9.972830105824755],[77.26469410784688,9.951619454174534],[77.2494513267174,9.951871711310503],[77.23168273487039,9.914744527138282],[77.21923157977363,9.903278614416593],[77.22137228460332,9.886713394607511],[77.21395052779468,9.874912187647396],[77.22408867785026,9.862745644595861],[77.23861613282833,9.85799160253049],[77.23870381852646,9.851955564297896],[77.22879113750105,9.847511357563178],[77.22392328083481,9.823468717407422],[77.2421839583231,9.815298488134772],[77.24914657165704,9.797532066351835],[77.22492638644366,9.788878344460102],[77.22582272453917,9.775328967857604],[77.23379367393898,9.76897207310276],[77.22125807070347,9.746407563158584],[77.22348748915635,9.730593146856279],[77.20517008243343,9.724384943310554],[77.20699018974551,9.695046461824802],[77.19493703411689,9.669214081764494],[77.18099486152369,9.657019567099383],[77.17765540177544,9.628584515762839],[77.16729254171747,9.61475525844844],[77.190078681486,9.605953705998786],[77.20149045951717,9.614751389565015],[77.21148811028814,9.613044881915812],[77.21215782462394,9.604550706949624],[77.23853623705776,9.581692756315704],[77.24563217578435,9.584858421179263],[77.27084144347788,9.57398799724831],[77.29081954638502,9.59000588606284],[77.32021235681486,9.602176800718837],[77.33079065216691,9.597780460399974],[77.32666033041,9.579509010832226],[77.34083491210157,9.572382785637103],[77.35690387521373,9.604286990652156],[77.36736992078528,9.597300696370098],[77.35923799813514,9.594052427877273],[77.36133349044826,9.576508490274648],[77.3519810357962,9.566044107549601],[77.36497268164402,9.555439400008368],[77.36678483625127,9.535532035075391],[77.3870577369251,9.517972632730846],[77.4031111120882,9.526071662677111],[77.40278248992001,9.516117441067081],[77.41128529657925,9.513735544359918],[77.41268704647007,9.505892350851354],[77.40194475344765,9.49550959059519],[77.40332107230972,9.4766851514986],[77.393870374818,9.46794474755211],[77.39510272391163,9.460039839866738],[77.38012892371091,9.452540810609946],[77.36806269193971,9.458915076669484],[77.35069605477918,9.440205456716512],[77.33817923928052,9.414768374560879],[77.34417131055761,9.398930856473896],[77.33635409846295,9.385226253289034],[77.33966720897456,9.367656040194163],[77.32803558717268,9.336952556915037],[77.30075569521921,9.336451689393982],[77.30019121145529,9.309873155321895],[77.28349624555534,9.299800483105855],[77.29087966426516,9.272096128233784],[77.2843663702119,9.27130380392748],[77.27633216609667,9.233268331468366],[77.28370961600604,9.217697704285683],[77.26717386248384,9.19906122259738],[77.25660127962539,9.19874095513103],[77.25351407161719,9.18796748351258],[77.26532433564961,9.184583701576628],[77.26884137373048,9.1518396718634],[77.24722318979843,9.12353099865669],[77.22876715887736,9.11502311802252],[77.22639941749918,9.106224047701687],[77.2129026674242,9.097030612073127],[77.19923984674159,9.045050121565907],[77.17084235559031,9.045019308094652],[77.16399552727182,9.029992641247418],[77.14926491364491,9.020235823524501],[77.15138247262308,9.008368132383453],[77.16036916580441,9.006286515710201],[77.18055698341811,8.970777806350725],[77.19759817571531,8.955499343719794],[77.19795290070584,8.92420292752314],[77.20232510232165,8.918632078907365],[77.21139955314692,8.930402085687774],[77.22233863851739,8.925920701878965],[77.2239200082019,8.901689237368487],[77.23918064716918,8.896687499528525],[77.24492070232861,8.880378581106697],[77.2593768077935,8.873368731781568],[77.26502962781512,8.84046294640791],[77.24538603943421,8.80906228169897],[77.23535716420184,8.805503715624013],[77.23272825160757,8.784202296298986],[77.21641382393886,8.777890104145058],[77.22031923694328,8.769275913752494],[77.215874780197,8.766120145928028],[77.20101467049074,8.769455023630485],[77.19458657820809,8.743328333236036],[77.17333318178095,8.745802307930205],[77.179813244086,8.723407967703622],[77.20597660703487,8.69205134459395],[77.20869219538855,8.663169778062866],[77.24687511709305,8.62124549228571],[77.24707317568658,8.60614460349069],[77.27035207378924,8.579379247854035],[77.28400979531585,8.55095312678543],[77.26655464418155,8.509678477979435],[77.24154653774258,8.496539855929655],[77.22528957135671,8.51262150038201],[77.20534913655348,8.50148745188443],[77.2177894089541,8.468357781186683],[77.22813961465152,8.45882498098814],[77.22863517347452,8.445848151471068],[77.20774057416821,8.442811642743152],[77.19889881932511,8.41709347568343],[77.17283616066032,8.385348564884396],[77.15984217297796,8.39068991280925],[77.15391306503597,8.386383976839113],[77.16240272810347,8.370135311195725],[77.1549600719498,8.353487740466903],[77.16670844194113,8.362442872840347],[77.17384157842616,8.359284634578273],[77.17035515776439,8.338787635441065],[77.1790223245207,8.320358968191897],[77.16908311709221,8.329774683854623],[77.14118139790327,8.330696950304059],[77.12005001789407,8.319330665377947],[77.12389127326372,8.30928344577444],[77.10858464296695,8.304977394691036],[77.10005572719012,8.29135591674219],[77.0231423270568,8.355110408818348],[77.00645456652506,8.3603725246723],[76.99838965775655,8.378495813630934],[76.9903500792928,8.375350760329354],[76.98276136514494,8.380341253945744],[76.97326638323705,8.392060391473933],[76.97099233682695,8.412842799455689],[76.88452724083953,8.509627873127897],[76.67225119493673,8.780694840494562],[76.67175682771546,8.790378249256833],[76.65551795389052,8.802615444846936],[76.60320840324528,8.867833257099164],[76.57865778552843,8.884419697311216],[76.566903025854,8.882088410851509],[76.54951859021082,8.89814649936153],[76.50739503625198,9.040719782492033],[76.46525321256576,9.119394955412929],[76.34286564263533,9.402734419457943],[76.31888609711575,9.503898228320622],[76.2899699273703,9.672356925431814],[76.2778953804675,9.807246069150835],[76.25847321686553,9.902221887630049],[76.24216189725382,9.946428290333358],[76.24328029145232,9.969274402291887],[76.22048128238532,10.002085381135487],[76.202365645758,10.0490072247037],[76.16891616804679,10.183869760181324],[76.15502423877763,10.199387030587047],[76.13988557845676,10.232854435383956],[76.13954429923007,10.257789840628675],[76.09819914447502,10.384031956109936],[76.06381340416533,10.46239343470927],[76.04302197868145,10.494421444893817],[76.0584699743099,10.479572058703582],[76.04022070652047,10.521885020677189],[76.05497853453181,10.526731159615395],[76.06867983001018,10.509459533131007],[76.06163991724844,10.52721647426091],[76.06574680537085,10.535251012923936],[76.05312324933857,10.541049026691269],[76.04768087966892,10.567249799638603],[76.0414477199364,10.565603584338021],[76.03756036621797,10.557766600648165],[76.04829932995017,10.533034415206146],[76.03547272588565,10.528481552381777],[76.03859209724754,10.505426277001106],[76.03290907169634,10.506709286704279],[76.01063598256462,10.572030240403308],[75.93517782939335,10.729029823667474],[75.92472020507347,10.765322909125018],[75.90165845547341,10.802517037031691],[75.85212526576845,11.053612249805553],[75.82930384020011,11.124196558624305],[75.81018695596333,11.154161803724321],[75.81194412332269,11.159542878301238],[75.82381429479392,11.159112162396411],[75.82305151591481,11.16804074138713],[75.80104187957915,11.17207616668179],[75.76738900130141,11.270119952174127],[75.73948590704902,11.327945406455399],[75.73957687707127,11.357143363475473],[75.7000661810095,11.423415113716601],[75.67669827250734,11.450297387514468],[75.65383159844959,11.461745555712866],[75.63317319708545,11.462052630124845],[75.6207329210875,11.477323066306496],[75.57373013943442,11.612590087162857],[75.53696559428681,11.692748940910917],[75.54225985460869,11.707127747847323],[75.52913646707435,11.705315065338027],[75.51121686376729,11.728339725997614],[75.4812517427738,11.75172826674617],[75.47365696449737,11.768473437299349],[75.45814406299814,11.765921904172615],[75.45743402306175,11.780198962712007],[75.38796454892486,11.857792515612175],[75.37722191685805,11.85964353352233],[75.36586049726418,11.851204206409022],[75.35777438338113,11.854459816067731],[75.34936761352458,11.875265514691819],[75.32076274050814,11.899087116777082],[75.32393293076018,11.908313258949818],[75.30944502706643,11.941268612256692],[75.3227672223295,11.940707137624372],[75.34239733976545,11.926653634357763],[75.35056096711497,11.929562281074482],[75.32329687714923,11.953143902669012],[75.31863481234677,11.973346264118845],[75.3146410832195,11.976583664304712],[75.30671889775897,11.968849534278661],[75.28828714043925,11.989597534198879],[75.30117576265138,11.95555212523044],[75.29612078314767,11.952496615626387],[75.2757772668075,11.973106778255271],[75.24927958718325,12.016125066818404],[75.23609808365967,12.023447104100626],[75.2038789567485,12.004061953896098],[75.09043894510131,12.288935367273439],[75.04535322756948,12.384180118118024],[75.0019788092747,12.447675991254016],[74.99054183313916,12.49182037221243],[74.98351036860868,12.485330172749343],[74.9797943582231,12.49030901744726],[74.91652432643656,12.64789142434978],[74.86303796792794,12.758281100192676],[74.88485735987933,12.752932930910106],[74.95375428513222,12.783514656776049],[74.97030615270683,12.77681550882869],[74.98161890099152,12.779507017834646],[74.99231743210385,12.787894481045498],[74.9891458236209,12.795080106461796],[74.99575065337001,12.79226798218167]],[[75.53973053293782,11.735067511056855],[75.5300614917445,11.73181310828835],[75.52833096859939,11.720236067240762],[75.54060592762153,11.714092671539618],[75.55925041147736,11.721127882645703],[75.54502380850204,11.73396049598017],[75.54363335769335,11.759301251751424],[75.53337372002125,11.75570588182103],[75.53973053293782,11.735067511056855]]]}}]}