{"type":"FeatureCollection","features":[{"type":"Feature","properties":{"name":"Thrissur"},"geometry":{"type":"Polygon","coordinates":[[[76.83918109900587,10.338336591597468],[76.83666364924716,10.320376283165741],[76.83209245786233,10.310697095317945],[76.83216530541205,10.303299410531487],[76.84253213410165,10.299194469785913],[76.8445169588102,10.291850759925609],[76.85116017998652,10.285702657012772],[76.85316009757177,10.291717022890092],[76.8633642454078,10.290953388864962],[76.8732055265499,10.298894113501852],[76.87691056271724,10.29819946052722],[76.8747297495881,10.29070784805229],[76.87499987813888,10.275212479216826],[76.88356241268106,10.272251759072969],[76.88984703257266,10.264495589234468],[76.89743887179567,10.263293444814027],[76.9046812119177,10.251301774725274],[76.89923695778982,10.253501806575878],[76.89590128123918,10.258718919035692],[76.88957394366304,10.257347368482035],[76.88062227205609,10.263277738649608],[76.87942704123459,10.268931770547663],[76.87179081444701,10.272293848624349],[76.86754993126125,10.270056655070398],[76.86646373862881,10.2727462152225],[76.84777056295482,10.28106595861942],[76.84580063339297,10.280152165429213],[76.84129778543915,10.284290880304368],[76.83383249425894,10.27645052094127],[76.82030588159738,10.283428496302141],[76.80663218040391,10.28559366129323],[76.80027355766582,10.277469050314833],[76.79558574893524,10.280236367080828],[76.79082270378795,10.27789982079205],[76.77701907723262,10.277258034023548],[76.77652188782051,10.27192278951903],[76.77118596251623,10.270391179753995],[76.76149928992342,10.269679832483588],[76.75034816257022,10.277983339726726],[76.73031387399512,10.271969251213237],[76.70897082584064,10.26986237525615],[76.69943780908419,10.26553528361359],[76.67006588911794,10.271809552485161],[76.66383854391533,10.278719060331794],[76.65868286867433,10.28057163895962],[76.64662952435327,10.281075185113242],[76.6438187980377,10.276379959574058],[76.63935469994829,10.274617217087103],[76.62589331568607,10.273805142506406],[76.61873157692564,10.279739731141143],[76.60430031293764,10.281912301707568],[76.59314998715526,10.290213189125664],[76.59068580306499,10.298369757600708],[76.57921351776233,10.301792929441694],[76.56746630340886,10.293168617933128],[76.57333802870126,10.283165891232269],[76.56354256036633,10.284288702068103],[76.5570458653426,10.282415868298637],[76.5415836239377,10.288206268748546],[76.52655870581457,10.285386507805356],[76.5042374206263,10.286719215618765],[76.49480284754355,10.291739815929745],[76.47416845384048,10.291689646278556],[76.4617713084726,10.296204111955984],[76.45057587118013,10.296008182189516],[76.4321730477879,10.290151322393772],[76.41764073535609,10.295644608992369],[76.41595785064422,10.294673658739775],[76.41685671763493,10.28807297177208],[76.41343449447318,10.287280221284963],[76.41300267829229,10.278618682817275],[76.40284638904036,10.276294361327341],[76.39706855759202,10.266672515254529],[76.3915516189645,10.26301389001354],[76.39088413185691,10.255728557483756],[76.38101910422597,10.253863227700634],[76.3789659436476,10.245204034994849],[76.37553419023443,10.241600381032848],[76.34401779530252,10.232505596014898],[76.3409979605554,10.230333516529882],[76.33531124855281,10.211528773774504],[76.33049077521139,10.208386412452423],[76.31332261341329,10.205332447316025],[76.31180033387915,10.201779490013285],[76.3146897316026,10.180483058411456],[76.30670400492734,10.184634279044591],[76.29786931095303,10.177600196650316],[76.27647279492422,10.17398122654793],[76.26926079616423,10.187253071572906],[76.26329379833068,10.188300382288723],[76.26164050839127,10.194846413356194],[76.26483656031762,10.198394483270647],[76.24994637343673,10.19969319648629],[76.24079616467507,10.203848532852078],[76.22844706146732,10.203474449120797],[76.2215591128862,10.206645984113692],[76.21441543037734,10.20104103593527],[76.2134651274574,10.19427129754271],[76.18110614437133,10.189580888225876],[76.16891616803616,10.183869759570849],[76.16686124404244,10.189303000188701],[76.16217321008615,10.191133857662109],[76.15502423912575,10.199387030064146],[76.1398855780276,10.232854435253556],[76.13954429884507,10.257789840155786],[76.1336684913198,10.264140967977962],[76.12082297673392,10.315149661702216],[76.09489462071643,10.392201134742411],[76.07361419492396,10.435290908389371],[76.06381340436238,10.462393434494125],[76.04950620040874,10.480533452190855],[76.04302197850558,10.49442144454387],[76.0450850456396,10.495421672738754],[76.05346679119268,10.48236280531969],[76.05846997465714,10.479572058311739],[76.05549621275978,10.490560887054588],[76.04461006353623,10.506965326652601],[76.04022070648395,10.521885020049615],[76.0416297288877,10.524838382837553],[76.0549785346751,10.526731159680962],[76.06867982972993,10.509459532690776],[76.06163991727716,10.527216473623422],[76.06698720782467,10.52980927330954],[76.06574680512938,10.5352510127306],[76.05312324913007,10.541049026236129],[76.0482256859527,10.550918267921984],[76.0471883982597,10.557966891401215],[76.04989067167554,10.560630889382677],[76.04768087988228,10.567249799859642],[76.04144771955704,10.565603584327812],[76.03756036660633,10.557766600009943],[76.0482993301911,10.533034415068668],[76.03547272607166,10.528481552337897],[76.03486581933821,10.519106960500471],[76.0385920975214,10.50542627682429],[76.03290907189172,10.506709286579609],[76.01063598300827,10.572030240205834],[75.99068424523077,10.607735845186612],[75.96536521382856,10.66846396008574],[75.95476145595548,10.686193486965587],[75.96108623000956,10.686480835656457],[75.97254140828122,10.693798863085126],[75.97389359785309,10.691736501677818],[75.9803318606643,10.691720618750102],[75.98074022498146,10.686463961791059],[75.98339561824261,10.68583570216216],[75.98407107226892,10.692900023409013],[75.995073148533,10.695806925342012],[75.99575745165727,10.693260528077943],[76.00002397191918,10.693169207499663],[76.01037764081013,10.686841211573789],[76.01822890727438,10.692852565121447],[76.03467282254424,10.698215698921878],[76.03961924004963,10.704576562410066],[76.0468111430863,10.702439829000681],[76.05331550584266,10.703633460977425],[76.05560462416109,10.712809518377124],[76.06328730639233,10.720081466017715],[76.06869490996152,10.72184851255759],[76.07010150445699,10.7272393256342],[76.1044001741706,10.722355411515789],[76.12521015099345,10.709694137014955],[76.13214841706831,10.720004248191632],[76.1381728138531,10.716435846416424],[76.14514632830776,10.716651685117403],[76.15314737841729,10.710840057446648],[76.15466666272687,10.715140856125258],[76.16340436585955,10.704506999244325],[76.18007187476015,10.727305414709557],[76.18113459083462,10.733211663673904],[76.18747573624283,10.738133681698022],[76.19104418078265,10.747821379724552],[76.19634175915803,10.751881735986839],[76.20313878071798,10.753301154330345],[76.20411277987894,10.76792877526278],[76.18980155985868,10.780870504461209],[76.19201696790384,10.783390533612852],[76.21278733330179,10.778065302060662],[76.22081396481384,10.781718961909219],[76.2328090064483,10.77279604205295],[76.24239365255569,10.772372738673761],[76.24528047542834,10.767891614741156],[76.24529778013421,10.751654719355791],[76.25195283009589,10.747050627461844],[76.26817608041112,10.75458150753985],[76.28043495485014,10.754380802270823],[76.28815911915,10.756943886208697],[76.32551993502176,10.744455351502209],[76.3399909244789,10.747973551890116],[76.35658260577576,10.74402858763372],[76.36524305986049,10.763510890899417],[76.38349588065887,10.768451566925803],[76.38806458621868,10.764136219814194],[76.39607501785197,10.747648530600957],[76.40326855400791,10.745390208290505],[76.4102443003545,10.74760633680295],[76.47088249063744,10.7514424316386],[76.47522426070546,10.747701003371578],[76.47037819276333,10.741750450547741],[76.47118354175812,10.739739271078333],[76.47669141102038,10.737312009140217],[76.47998439145597,10.732252838334597],[76.47782296965994,10.727786854433065],[76.46727965653285,10.719500655225952],[76.45948020087182,10.698409634079717],[76.45101039848997,10.699984794918183],[76.44484402810282,10.696387192639241],[76.45254885476423,10.676858493307636],[76.45271720838358,10.659185135407537],[76.44320999325512,10.663058444092183],[76.43748158045959,10.650397720343914],[76.43033708327594,10.650245757885552],[76.42556502736683,10.64710515035335],[76.419979202141,10.628186472808636],[76.42722887776951,10.625698216638964],[76.43015668233353,10.615191723829449],[76.42582507896498,10.607227551402021],[76.41682129383636,10.603812412593355],[76.41586370601604,10.595324554225813],[76.40566250697678,10.598507672345418],[76.40413210733476,10.594038485291218],[76.4124177676064,10.572499995007302],[76.41643003603956,10.576216147623784],[76.4232209280802,10.576025382693816],[76.42448435410864,10.571719014279592],[76.42802306349803,10.571075899835273],[76.43313146929331,10.55574280708799],[76.4404966239573,10.55417360063983],[76.43439861097255,10.537436156531609],[76.43496234295554,10.53198356969117],[76.44600836595905,10.521165094345017],[76.45469528333247,10.518211916329985],[76.46937359290395,10.50135671512436],[76.46883290706275,10.496196146152847],[76.47721206188486,10.486760733432028],[76.48044848091232,10.484340316950725],[76.4870710813636,10.484434339842803],[76.49267399394317,10.479082310304577],[76.52500334589529,10.466354558613254],[76.5391950344921,10.44789288785831],[76.558152459419,10.443413053180144],[76.55886572434477,10.433713110113498],[76.56094770845048,10.43175497986349],[76.57053620028557,10.43642744386178],[76.5864274090927,10.435400184973286],[76.6012148100656,10.419282826741584],[76.60798433788281,10.400440860599707],[76.62176203332056,10.381400881947513],[76.62575623034151,10.379207158641485],[76.63098750320684,10.380679522007636],[76.63067470051539,10.375803517778035],[76.6334014047852,10.37522191354184],[76.64623874452475,10.381943976179494],[76.65712469179252,10.37708697356038],[76.65947887613243,10.385053241079952],[76.67421128839752,10.370942962836063],[76.68486873217945,10.367516798782294],[76.68670378204753,10.363148897728252],[76.68948444040575,10.362278094977155],[76.70492444812977,10.363827774236215],[76.70791147068027,10.371105201779397],[76.7210307786181,10.373577610976936],[76.75762556195039,10.361444526128036],[76.76604258037871,10.36256034790005],[76.76666453872227,10.358312034025346],[76.76297533240121,10.350809437243962],[76.75420067890094,10.346885683535723],[76.75317996634215,10.338856251213144],[76.75519141473036,10.33643913576172],[76.77258322361946,10.334705931957869],[76.77653633461246,10.336870501188503],[76.77765777087592,10.34128360803655],[76.787671663482,10.337057302973784],[76.80594711520231,10.338072156100056],[76.80928395630065,10.345116706133583],[76.81857747638485,10.348005537326635],[76.83157196541953,10.336704797302358],[76.83918109900587,10.338336591597468]]]}}]}